{
  "norad_id": 62769,
  "name": "STARLINK-33569",
  "history": [
    {
      "epoch": "2026-03-28T16:33:03.823776",
      "apogee_km": 475.97547414910787,
      "perigee_km": 474.38961600637685,
      "latitude_deg": -14.332794420912425,
      "longitude_deg": 163.10424863989465,
      "semi_major_axis_km": 6853.319545077742,
      "eccentricity": 0.0001157,
      "inclination_deg": 53.1577,
      "raan_deg": 233.9528,
      "arg_perigee_deg": 87.6303,
      "mean_anomaly_deg": 272.483,
      "mean_motion_rev_day": 15.30210893
    }
  ]
}